[{"OBJECT_NAME":"GAOFEN-9 03","OBJECT_ID":"2020-039A","EPOCH":"2026-03-09T21:55:15.121344","MEAN_MOTION":15.30529116,"ECCENTRICITY":0.0013094,"INCLINATION":97.5219,"RA_OF_ASC_NODE":201.2158,"ARG_OF_PERICENTER":77.4533,"MEAN_ANOMALY":282.8172,"EPHEMERIS_TYPE":0,"CLASSIFICATION_TYPE":"U","NORAD_CAT_ID":45794,"ELEMENT_SET_NO":999,"REV_AT_EPOCH":31856,"BSTAR":0.00039258132,"MEAN_MOTION_DOT":0.00011544,"MEAN_MOTION_DDOT":0},{"OBJECT_NAME":"STARLINK-32120","OBJECT_ID":"2024-131L","EPOCH":"2026-03-09T22:48:57.502656","MEAN_MOTION":15.30694889,"ECCENTRICITY":0.00016447,"INCLINATION":53.1604,"RA_OF_ASC_NODE":51.564,"ARG_OF_PERICENTER":95.7692,"MEAN_ANOMALY":264.3496,"EPHEMERIS_TYPE":0,"CLASSIFICATION_TYPE":"U","NORAD_CAT_ID":60265,"ELEMENT_SET_NO":999,"REV_AT_EPOCH":9180,"BSTAR":0.00074487835,"MEAN_MOTION_DOT":0.00022108,"MEAN_MOTION_DDOT":0}]
